start=new Date('2022-05-26T00:00:00.000Z').valueOf();
sats=[{"TIME_SYSTEM":"UTC","NORAD_CAT_ID":"47369","CENTER_NAME":"EARTH","TLE_LINE1":"1 47369U 21005W   22145.29241093  .00001096  00000-0  92485-4 0  9999","GP_ID":"204503527","CLASSIFICATION_TYPE":"U","MEAN_MOTION_DDOT":"0.0000000000000","REF_FRAME":"TEME","MEAN_ELEMENT_THEORY":"SGP4","REV_AT_EPOCH":"7466","RCS_SIZE":"LARGE","APOAPSIS":"548.593","EPHEMERIS_TYPE":"0","FILE":"3463908","EPOCH":"2022-05-25T07:01:04.304352","MEAN_MOTION":"15.06394063","MEAN_MOTION_DOT":"0.00001096","ARG_OF_PERICENTER":"48.5682","ECCENTRICITY":"0.00019660","LAUNCH_DATE":"2021-01-20","TLE_LINE2":"2 47369  53.0529 136.4245 0001966  48.5682 311.5476 15.06394063 74662","ELEMENT_SET_NO":"999","DECAY_DATE":null,"OBJECT_NAME":"STARLINK-2085","PERIAPSIS":"545.870","INCLINATION":"53.0529","OBJECT_TYPE":"PAYLOAD","MEAN_ANOMALY":"311.5476","PERIOD":"95.593","RA_OF_ASC_NODE":"136.4245","BSTAR":"0.00009248500000","COUNTRY_CODE":"US","SEMIMAJOR_AXIS":"6925.367","SITE":"AFETR","OBJECT_ID":"2021-005W"},{"PERIAPSIS":"544.840","INCLINATION":"53.0555","OBJECT_TYPE":"PAYLOAD","ELEMENT_SET_NO":"999","DECAY_DATE":null,"OBJECT_NAME":"STARLINK-2086","TLE_LINE2":"2 47370  53.0555 116.0198 0003462  38.7105 321.4132 15.06392290 74960","LAUNCH_DATE":"2021-01-20","MEAN_MOTION":"15.06392290","MEAN_MOTION_DOT":"-0.00000209","ARG_OF_PERICENTER":"38.7105","ECCENTRICITY":"0.00034620","SEMIMAJOR_AXIS":"6925.372","SITE":"AFETR","OBJECT_ID":"2021-005X","BSTAR":"0.00000489730000","COUNTRY_CODE":"US","PERIOD":"95.593","RA_OF_ASC_NODE":"116.0198","MEAN_ANOMALY":"321.4132","GP_ID":"204502276","CENTER_NAME":"EARTH","TLE_LINE1":"1 47370U 21005X   22145.38272383 -.00000209  00000-0  48973-5 0  9997","NORAD_CAT_ID":"47370","TIME_SYSTEM":"UTC","EPOCH":"2022-05-25T09:11:07.338912","FILE":"3463908","REV_AT_EPOCH":"7496","APOAPSIS":"549.635","RCS_SIZE":"LARGE","EPHEMERIS_TYPE":"0","CLASSIFICATION_TYPE":"U","MEAN_MOTION_DDOT":"0.0000000000000","REF_FRAME":"TEME","MEAN_ELEMENT_THEORY":"SGP4"},{"OBJECT_ID":"2021-005Y","SITE":"AFETR","SEMIMAJOR_AXIS":"6925.381","PERIOD":"95.593","MEAN_ANOMALY":"315.0567","RA_OF_ASC_NODE":"155.4886","COUNTRY_CODE":"US","BSTAR":"0.00001189900000","OBJECT_NAME":"STARLINK-2088","DECAY_DATE":null,"ELEMENT_SET_NO":"999","OBJECT_TYPE":"PAYLOAD","INCLINATION":"53.0547","PERIAPSIS":"545.884","ARG_OF_PERICENTER":"45.0581","ECCENTRICITY":"0.00019660","MEAN_MOTION_DOT":"-0.00000104","MEAN_MOTION":"15.06389521","LAUNCH_DATE":"2021-01-20","TLE_LINE2":"2 47371  53.0547 155.4886 0001966  45.0581 315.0567 15.06389521 74413","FILE":"3464102","EPOCH":"2022-05-25T12:00:57.934656","MEAN_ELEMENT_THEORY":"SGP4","REF_FRAME":"TEME","MEAN_MOTION_DDOT":"0.0000000000000","CLASSIFICATION_TYPE":"U","EPHEMERIS_TYPE":"0","RCS_SIZE":"LARGE","APOAPSIS":"548.607","REV_AT_EPOCH":"7441","TLE_LINE1":"1 47371U 21005Y   22145.50067054 -.00000104  00000-0  11899-4 0  9999","CENTER_NAME":"EARTH","GP_ID":"204509623","TIME_SYSTEM":"UTC","NORAD_CAT_ID":"47371"},{"SEMIMAJOR_AXIS":"6929.351","SITE":"AFETR","OBJECT_ID":"2021-005Z","BSTAR":"-0.00940960000000","COUNTRY_CODE":"US","RA_OF_ASC_NODE":"150.9471","PERIOD":"95.675","MEAN_ANOMALY":"300.7415","PERIAPSIS":"549.690","INCLINATION":"53.0548","OBJECT_TYPE":"PAYLOAD","ELEMENT_SET_NO":"999","DECAY_DATE":null,"OBJECT_NAME":"STARLINK-2089","LAUNCH_DATE":"2021-01-20","TLE_LINE2":"2 47372  53.0548 150.9471 0002202  59.3791 300.7415 15.05094958 74464","MEAN_MOTION":"15.05094958","MEAN_MOTION_DOT":"-0.00133089","ARG_OF_PERICENTER":"59.3791","ECCENTRICITY":"0.00022020","EPOCH":"2022-05-25T09:36:53.975808","FILE":"3463908","REV_AT_EPOCH":"7446","RCS_SIZE":"LARGE","APOAPSIS":"552.742","EPHEMERIS_TYPE":"0","CLASSIFICATION_TYPE":"U","MEAN_MOTION_DDOT":"0.0000000000000","REF_FRAME":"TEME","MEAN_ELEMENT_THEORY":"SGP4","GP_ID":"204502777","CENTER_NAME":"EARTH","TLE_LINE1":"1 47372U 21005Z   22145.40062472 -.00133089  00000-0 -94096-2 0  9996","NORAD_CAT_ID":"47372","TIME_SYSTEM":"UTC"},{"SITE":"AFETR","OBJECT_ID":"2021-005AA","SEMIMAJOR_AXIS":"6925.357","COUNTRY_CODE":"US","BSTAR":"0.00015131000000","MEAN_ANOMALY":"311.8276","PERIOD":"95.592","RA_OF_ASC_NODE":"155.4912","OBJECT_TYPE":"PAYLOAD","INCLINATION":"53.0541","PERIAPSIS":"545.831","OBJECT_NAME":"STARLINK-2092","DECAY_DATE":null,"ELEMENT_SET_NO":"999","TLE_LINE2":"2 47373  53.0541 155.4912 0002008  48.2885 311.8276 15.06397249 74416","LAUNCH_DATE":"2021-01-20","ARG_OF_PERICENTER":"48.2885","ECCENTRICITY":"0.00020080","MEAN_MOTION_DOT":"0.00001973","MEAN_MOTION":"15.06397249","EPOCH":"2022-05-25T11:55:39.525600","FILE":"3463908","EPHEMERIS_TYPE":"0","APOAPSIS":"548.613","RCS_SIZE":"LARGE","REV_AT_EPOCH":"7441","MEAN_ELEMENT_THEORY":"SGP4","REF_FRAME":"TEME","MEAN_MOTION_DDOT":"0.0000000000000","CLASSIFICATION_TYPE":"U","GP_ID":"204503027","TLE_LINE1":"1 47373U 21005AA  22145.49698525  .00001973  00000-0  15131-3 0  9998","CENTER_NAME":"EARTH","NORAD_CAT_ID":"47373","TIME_SYSTEM":"UTC"},{"SEMIMAJOR_AXIS":"6925.341","OBJECT_ID":"2021-005AB","SITE":"AFETR","BSTAR":"0.00005239200000","COUNTRY_CODE":"US","PERIOD":"95.592","RA_OF_ASC_NODE":"155.9973","MEAN_ANOMALY":"312.1288","PERIAPSIS":"545.900","INCLINATION":"53.0523","OBJECT_TYPE":"PAYLOAD","ELEMENT_SET_NO":"999","DECAY_DATE":null,"OBJECT_NAME":"STARLINK-2093","TLE_LINE2":"2 47374  53.0523 155.9973 0001886  47.9861 312.1288 15.06402374 74392","LAUNCH_DATE":"2021-01-20","MEAN_MOTION":"15.06402374","MEAN_MOTION_DOT":"0.00000499","ARG_OF_PERICENTER":"47.9861","ECCENTRICITY":"0.00018860","EPOCH":"2022-05-25T09:15:03.587616","FILE":"3463908","REV_AT_EPOCH":"7439","APOAPSIS":"548.512","RCS_SIZE":"LARGE","EPHEMERIS_TYPE":"0","CLASSIFICATION_TYPE":"U","MEAN_MOTION_DDOT":"0.0000000000000","REF_FRAME":"TEME","MEAN_ELEMENT_THEORY":"SGP4","GP_ID":"204501776","CENTER_NAME":"EARTH","TLE_LINE1":"1 47374U 21005AB  22145.38545819  .00000499  00000-0  52392-4 0  9997","NORAD_CAT_ID":"47374","TIME_SYSTEM":"UTC"},{"TLE_LINE2":"2 47375  53.0526 155.3935 0001990  44.0311 316.0836 15.06390549 74417","LAUNCH_DATE":"2021-01-20","MEAN_MOTION_DOT":"0.00000566","ARG_OF_PERICENTER":"44.0311","ECCENTRICITY":"0.00019900","MEAN_MOTION":"15.06390549","OBJECT_TYPE":"PAYLOAD","PERIAPSIS":"545.864","INCLINATION":"53.0526","DECAY_DATE":null,"OBJECT_NAME":"STARLINK-2094","ELEMENT_SET_NO":"999","COUNTRY_CODE":"US","BSTAR":"0.00005691500000","MEAN_ANOMALY":"316.0836","PERIOD":"95.593","RA_OF_ASC_NODE":"155.3935","SITE":"AFETR","OBJECT_ID":"2021-005AC","SEMIMAJOR_AXIS":"6925.378","NORAD_CAT_ID":"47375","TIME_SYSTEM":"UTC","GP_ID":"204502026","CENTER_NAME":"EARTH","TLE_LINE1":"1 47375U 21005AC  22145.52279392  .00000566  00000-0  56915-4 0  9994","APOAPSIS":"548.621","RCS_SIZE":"LARGE","EPHEMERIS_TYPE":"0","REV_AT_EPOCH":"7441","REF_FRAME":"TEME","MEAN_ELEMENT_THEORY":"SGP4","CLASSIFICATION_TYPE":"U","MEAN_MOTION_DDOT":"0.0000000000000","EPOCH":"2022-05-25T12:32:49.394688","FILE":"3463908"},{"NORAD_CAT_ID":"47376","TIME_SYSTEM":"UTC","GP_ID":"204503277","CENTER_NAME":"EARTH","TLE_LINE1":"1 47376U 21005AD  22145.52646696  .00000190  00000-0  31684-4 0  9999","REV_AT_EPOCH":"7441","APOAPSIS":"548.519","RCS_SIZE":"LARGE","EPHEMERIS_TYPE":"0","CLASSIFICATION_TYPE":"U","MEAN_MOTION_DDOT":"0.0000000000000","REF_FRAME":"TEME","MEAN_ELEMENT_THEORY":"SGP4","EPOCH":"2022-05-25T12:38:06.745344","FILE":"3463908","TLE_LINE2":"2 47376  53.0535 155.3708 0001890  51.2853 308.8305 15.06401215 74419","LAUNCH_DATE":"2021-01-20","MEAN_MOTION":"15.06401215","MEAN_MOTION_DOT":"0.00000190","ECCENTRICITY":"0.00018900","ARG_OF_PERICENTER":"51.2853","PERIAPSIS":"545.901","INCLINATION":"53.0535","OBJECT_TYPE":"PAYLOAD","ELEMENT_SET_NO":"999","DECAY_DATE":null,"OBJECT_NAME":"STARLINK-2096","BSTAR":"0.00003168400000","COUNTRY_CODE":"US","MEAN_ANOMALY":"308.8305","PERIOD":"95.592","RA_OF_ASC_NODE":"155.3708","SEMIMAJOR_AXIS":"6925.345","SITE":"AFETR","OBJECT_ID":"2021-005AD"},{"EPOCH":"2022-05-25T12:16:53.747616","FILE":"3463908","RCS_SIZE":"LARGE","APOAPSIS":"548.487","EPHEMERIS_TYPE":"0","REV_AT_EPOCH":"7441","REF_FRAME":"TEME","MEAN_ELEMENT_THEORY":"SGP4","CLASSIFICATION_TYPE":"U","MEAN_MOTION_DDOT":"0.0000000000000","GP_ID":"204503528","CENTER_NAME":"EARTH","TLE_LINE1":"1 47377U 21005AE  22145.51173319  .00000574  00000-0  57470-4 0  9993","NORAD_CAT_ID":"47377","TIME_SYSTEM":"UTC","OBJECT_ID":"2021-005AE","SITE":"AFETR","SEMIMAJOR_AXIS":"6925.376","COUNTRY_CODE":"US","BSTAR":"0.00005747000000","PERIOD":"95.593","RA_OF_ASC_NODE":"155.4463","MEAN_ANOMALY":"295.9382","OBJECT_TYPE":"PAYLOAD","PERIAPSIS":"545.994","INCLINATION":"53.0546","DECAY_DATE":null,"OBJECT_NAME":"STARLINK-2097","ELEMENT_SET_NO":"999","LAUNCH_DATE":"2021-01-20","TLE_LINE2":"2 47377  53.0546 155.4463 0001800  64.1792 295.9382 15.06391108 74417","MEAN_MOTION_DOT":"0.00000574","ARG_OF_PERICENTER":"64.1792","ECCENTRICITY":"0.00018000","MEAN_MOTION":"15.06391108"},{"TIME_SYSTEM":"UTC","NORAD_CAT_ID":"47378","CENTER_NAME":"EARTH","TLE_LINE1":"1 47378U 21005AF  22145.43800984  .00000426  00000-0  47535-4 0  9997","GP_ID":"204472910","REF_FRAME":"TEME","MEAN_ELEMENT_THEORY":"SGP4","CLASSIFICATION_TYPE":"U","MEAN_MOTION_DDOT":"0.0000000000000","APOAPSIS":"548.421","RCS_SIZE":"LARGE","EPHEMERIS_TYPE":"0","REV_AT_EPOCH":"7496","FILE":"3463456","EPOCH":"2022-05-25T10:30:44.050176","MEAN_MOTION_DOT":"0.00000426","ARG_OF_PERICENTER":"57.5409","ECCENTRICITY":"0.00017160","MEAN_MOTION":"15.06393917","LAUNCH_DATE":"2021-01-20","TLE_LINE2":"2 47378  53.0553 115.7714 0001716  57.5409 302.5745 15.06393917 74969","DECAY_DATE":null,"OBJECT_NAME":"STARLINK-2098","ELEMENT_SET_NO":"999","OBJECT_TYPE":"PAYLOAD","PERIAPSIS":"546.044","INCLINATION":"53.0553","PERIOD":"95.593","MEAN_ANOMALY":"302.5745","RA_OF_ASC_NODE":"115.7714","COUNTRY_CODE":"US","BSTAR":"0.00004753500000","OBJECT_ID":"2021-005AF","SITE":"AFETR","SEMIMAJOR_AXIS":"6925.367"}];
